{
  "type": "FeatureCollection",
  "features": [
    {
      "type": "Feature",
      "geometry": { "type": "Point", "coordinates": [17.191, 44.7725] },
      "properties": {
        "id": "bench-0001",
        "type": "bench",
        "condition": "fair",
        "material": "wood",
        "has_backrest": true,
        "notes": "Nedostaje jedna daska, noga je klimava",
        "date_surveyed": "2026-07-18"
      }
    },
    {
      "type": "Feature",
      "geometry": { "type": "Point", "coordinates": [17.1935, 44.7737] },
      "properties": {
        "id": "bench-0002",
        "type": "bench",
        "condition": "good",
        "material": "metal",
        "has_backrest": true,
        "notes": "",
        "date_surveyed": "2026-07-18"
      }
    },
    {
      "type": "Feature",
      "geometry": { "type": "Point", "coordinates": [17.1888, 44.7715] },
      "properties": {
        "id": "bin-0001",
        "type": "bin",
        "condition": "poor",
        "bin_type": "general",
        "has_lid": false,
        "notes": "Nedostaje poklopac, sa jedne strane potpuno zahrđala",
        "date_surveyed": "2026-07-19"
      }
    },
    {
      "type": "Feature",
      "geometry": { "type": "Point", "coordinates": [17.1952, 44.7702] },
      "properties": {
        "id": "bin-0002",
        "type": "bin",
        "condition": "good",
        "bin_type": "recycling",
        "has_lid": true,
        "notes": "",
        "date_surveyed": "2026-07-19"
      }
    },
    {
      "type": "Feature",
      "geometry": { "type": "Point", "coordinates": [17.1875, 44.7745] },
      "properties": {
        "id": "bench-0003",
        "type": "bench",
        "condition": "poor",
        "material": "wood",
        "has_backrest": false,
        "notes": "Polomljene su dve daske, nije bezbedna za sedenje",
        "date_surveyed": "2026-07-20"
      }
    }
  ]
}
